STARLINK-11504 [DTC]    
1 62274U 24237H   25305.59185706  .00148406  00000+0  11379-2 0  9990
2 62274  42.9990 108.9377 0001998 285.4472  74.6175 15.70873623 52852
STARLINK-11495 [DTC]    
1 62275U 24237J   25305.17863930  .00310683  00000+0  23273-2 0  9991
2 62275  42.9986 111.8755 0001032  36.6805 323.4133 15.70921568 52789
STARLINK-11498 [DTC]    
1 62276U 24237K   25305.51234762  .00226004  00000+0  17047-2 0  9990
2 62276  42.9994 109.1900 0005262 291.7773  68.2535 15.71004704 52895
STARLINK-11484 [DTC]    
1 62277U 24237L   25305.00003472 -.00061759  00000+0 -48044-3 0  9995
2 62277  42.9997 112.4292 0001785 276.2961   3.0015 15.70885045  6032
STARLINK-11487 [DTC]    
1 62278U 24237M   25305.16801443  .00287703  00000+0  21613-2 0  9996
2 62278  42.9978 111.7887 0000561 327.9917  32.0916 15.70922744 52839
STARLINK-11499 [DTC]    
1 62279U 24237N   25304.86162575  .00285668  00000+0  21476-2 0  9994
2 62279  43.0010 113.7976 0002013 288.8026  71.2623 15.70912465 52716
STARLINK-33548          
1 62280U 24237P   25305.44202416  .00026576  00000+0  97229-3 0  9991
2 62280  43.0005 209.7764 0001403 281.4658  78.6036 15.27562868 51702
STARLINK-33544          
1 62281U 24237Q   25304.77655949  .00033760  00000+0  12304-2 0  9993
2 62281  43.0019 224.6334 0001096 273.4829  86.5897 15.27589553 51473
STARLINK-33560          
1 62282U 24237R   25305.47782196  .00035553  00000+0  12951-2 0  9997
2 62282  43.0023 220.4314 0000643 337.0579  23.0244 15.27585390 51496
STARLINK-33547          
1 62283U 24237S   25305.43816969  .00029336  00000+0  10719-2 0  9992
2 62283  42.9988 209.7452 0001537 294.0895  65.9795 15.27562382 51700
STARLINK-33563          
1 62284U 24237T   25305.48426242  .00024631  00000+0  90205-3 0  9991
2 62284  43.0023 220.4783 0000926 297.5600  62.5158 15.27563227 51584
STARLINK-33550          
1 62285U 24237U   25305.47398065  .00029866  00000+0  10911-2 0  9992
2 62285  42.9992 220.3991 0001203 289.5244  70.5477 15.27559371 51580
STARLINK-33564          
1 62286U 24237V   25305.48811437  .00026529  00000+0  97041-3 0  9990
2 62286  43.0013 220.5107 0001186 288.7390  71.3333 15.27569489 51582
STARLINK-33546          
1 62287U 24237W   25305.48037342  .00027522  00000+0  10041-2 0  9994
2 62287  43.0035 220.4510 0003597 276.6616  83.3826 15.27637035 51492
STARLINK-33565          
1 62288U 24237X   25304.75471649  .00043177  00000+0  15663-2 0  9995
2 62288  42.9989 213.2151 0003217 304.4226  55.6322 15.27642316 51600
STARLINK-33549          
1 62289U 24237Y   25305.49197117  .00052201  00000+0  18935-2 0  9996
2 62289  43.0036 220.5406 0001405 274.2388  85.8303 15.27571999 51589
