[{"OBJECT_NAME":"STARLINK-11504 [DTC]","OBJECT_ID":"2024-237H","EPOCH":"2025-11-01T14:12:16.449984","MEAN_MOTION":15.70873623,"ECCENTRICITY":0.00019987,"INCLINATION":42.999,"RA_OF_ASC_NODE":108.9377,"ARG_OF_PERICENTER":285.4472,"MEAN_ANOMALY":74.6175,"EPHEMERIS_TYPE":0,"CLASSIFICATION_TYPE":"U","NORAD_CAT_ID":62274,"ELEMENT_SET_NO":999,"REV_AT_EPOCH":5285,"BSTAR":0.0011378852,"MEAN_MOTION_DOT":0.00148406,"MEAN_MOTION_DDOT":0},{"OBJECT_NAME":"STARLINK-11495 [DTC]","OBJECT_ID":"2024-237J","EPOCH":"2025-11-01T04:17:14.435520","MEAN_MOTION":15.70921568,"ECCENTRICITY":0.00010328,"INCLINATION":42.9986,"RA_OF_ASC_NODE":111.8755,"ARG_OF_PERICENTER":36.6805,"MEAN_ANOMALY":323.4133,"EPHEMERIS_TYPE":0,"CLASSIFICATION_TYPE":"U","NORAD_CAT_ID":62275,"ELEMENT_SET_NO":999,"REV_AT_EPOCH":5278,"BSTAR":0.0023273256,"MEAN_MOTION_DOT":0.00310683,"MEAN_MOTION_DDOT":0},{"OBJECT_NAME":"STARLINK-11498 [DTC]","OBJECT_ID":"2024-237K","EPOCH":"2025-11-01T12:17:46.834368","MEAN_MOTION":15.71004704,"ECCENTRICITY":0.00052626,"INCLINATION":42.9994,"RA_OF_ASC_NODE":109.19,"ARG_OF_PERICENTER":291.7773,"MEAN_ANOMALY":68.2535,"EPHEMERIS_TYPE":0,"CLASSIFICATION_TYPE":"U","NORAD_CAT_ID":62276,"ELEMENT_SET_NO":999,"REV_AT_EPOCH":5289,"BSTAR":0.0017047171,"MEAN_MOTION_DOT":0.00226004,"MEAN_MOTION_DDOT":0},{"OBJECT_NAME":"STARLINK-11484 [DTC]","OBJECT_ID":"2024-237L","EPOCH":"2025-11-01T00:00:02.999808","MEAN_MOTION":15.70885045,"ECCENTRICITY":0.00017856,"INCLINATION":42.9997,"RA_OF_ASC_NODE":112.4292,"ARG_OF_PERICENTER":276.2961,"MEAN_ANOMALY":3.0015,"EPHEMERIS_TYPE":0,"CLASSIFICATION_TYPE":"U","NORAD_CAT_ID":62277,"ELEMENT_SET_NO":999,"REV_AT_EPOCH":603,"BSTAR":-0.0004804407,"MEAN_MOTION_DOT":-0.00061759,"MEAN_MOTION_DDOT":0},{"OBJECT_NAME":"STARLINK-11487 [DTC]","OBJECT_ID":"2024-237M","EPOCH":"2025-11-01T04:01:56.446752","MEAN_MOTION":15.70922744,"ECCENTRICITY":5.617e-5,"INCLINATION":42.9978,"RA_OF_ASC_NODE":111.7887,"ARG_OF_PERICENTER":327.9917,"MEAN_ANOMALY":32.0916,"EPHEMERIS_TYPE":0,"CLASSIFICATION_TYPE":"U","NORAD_CAT_ID":62278,"ELEMENT_SET_NO":999,"REV_AT_EPOCH":5283,"BSTAR":0.0021613141,"MEAN_MOTION_DOT":0.00287703,"MEAN_MOTION_DDOT":0},{"OBJECT_NAME":"STARLINK-11499 [DTC]","OBJECT_ID":"2024-237N","EPOCH":"2025-10-31T20:40:44.464800","MEAN_MOTION":15.70912465,"ECCENTRICITY":0.00020134,"INCLINATION":43.001,"RA_OF_ASC_NODE":113.7976,"ARG_OF_PERICENTER":288.8026,"MEAN_ANOMALY":71.2623,"EPHEMERIS_TYPE":0,"CLASSIFICATION_TYPE":"U","NORAD_CAT_ID":62279,"ELEMENT_SET_NO":999,"REV_AT_EPOCH":5271,"BSTAR":0.002147585,"MEAN_MOTION_DOT":0.00285668,"MEAN_MOTION_DDOT":0},{"OBJECT_NAME":"STARLINK-33548","OBJECT_ID":"2024-237P","EPOCH":"2025-11-01T10:36:30.887424","MEAN_MOTION":15.27562868,"ECCENTRICITY":0.00014033,"INCLINATION":43.0005,"RA_OF_ASC_NODE":209.7764,"ARG_OF_PERICENTER":281.4658,"MEAN_ANOMALY":78.6036,"EPHEMERIS_TYPE":0,"CLASSIFICATION_TYPE":"U","NORAD_CAT_ID":62280,"ELEMENT_SET_NO":999,"REV_AT_EPOCH":5170,"BSTAR":0.00097229173,"MEAN_MOTION_DOT":0.00026576,"MEAN_MOTION_DDOT":0},{"OBJECT_NAME":"STARLINK-33544","OBJECT_ID":"2024-237Q","EPOCH":"2025-10-31T18:38:14.739936","MEAN_MOTION":15.27589553,"ECCENTRICITY":0.00010966,"INCLINATION":43.0019,"RA_OF_ASC_NODE":224.6334,"ARG_OF_PERICENTER":273.4829,"MEAN_ANOMALY":86.5897,"EPHEMERIS_TYPE":0,"CLASSIFICATION_TYPE":"U","NORAD_CAT_ID":62281,"ELEMENT_SET_NO":999,"REV_AT_EPOCH":5147,"BSTAR":0.0012303728,"MEAN_MOTION_DOT":0.0003376,"MEAN_MOTION_DDOT":0},{"OBJECT_NAME":"STARLINK-33560","OBJECT_ID":"2024-237R","EPOCH":"2025-11-01T11:28:03.817344","MEAN_MOTION":15.2758539,"ECCENTRICITY":6.436e-5,"INCLINATION":43.0023,"RA_OF_ASC_NODE":220.4314,"ARG_OF_PERICENTER":337.0579,"MEAN_ANOMALY":23.0244,"EPHEMERIS_TYPE":0,"CLASSIFICATION_TYPE":"U","NORAD_CAT_ID":62282,"ELEMENT_SET_NO":999,"REV_AT_EPOCH":5149,"BSTAR":0.0012950815,"MEAN_MOTION_DOT":0.00035553,"MEAN_MOTION_DDOT":0},{"OBJECT_NAME":"STARLINK-33547","OBJECT_ID":"2024-237S","EPOCH":"2025-11-01T10:30:57.861216","MEAN_MOTION":15.27562382,"ECCENTRICITY":0.00015371,"INCLINATION":42.9988,"RA_OF_ASC_NODE":209.7452,"ARG_OF_PERICENTER":294.0895,"MEAN_ANOMALY":65.9795,"EPHEMERIS_TYPE":0,"CLASSIFICATION_TYPE":"U","NORAD_CAT_ID":62283,"ELEMENT_SET_NO":999,"REV_AT_EPOCH":5170,"BSTAR":0.0010719141,"MEAN_MOTION_DOT":0.00029336,"MEAN_MOTION_DDOT":0},{"OBJECT_NAME":"STARLINK-33563","OBJECT_ID":"2024-237T","EPOCH":"2025-11-01T11:37:20.273088","MEAN_MOTION":15.27563227,"ECCENTRICITY":9.26e-5,"INCLINATION":43.0023,"RA_OF_ASC_NODE":220.4783,"ARG_OF_PERICENTER":297.56,"MEAN_ANOMALY":62.5158,"EPHEMERIS_TYPE":0,"CLASSIFICATION_TYPE":"U","NORAD_CAT_ID":62284,"ELEMENT_SET_NO":999,"REV_AT_EPOCH":5158,"BSTAR":0.00090205312,"MEAN_MOTION_DOT":0.00024631,"MEAN_MOTION_DDOT":0},{"OBJECT_NAME":"STARLINK-33550","OBJECT_ID":"2024-237U","EPOCH":"2025-11-01T11:22:31.928160","MEAN_MOTION":15.27559371,"ECCENTRICITY":0.00012031,"INCLINATION":42.9992,"RA_OF_ASC_NODE":220.3991,"ARG_OF_PERICENTER":289.5244,"MEAN_ANOMALY":70.5477,"EPHEMERIS_TYPE":0,"CLASSIFICATION_TYPE":"U","NORAD_CAT_ID":62285,"ELEMENT_SET_NO":999,"REV_AT_EPOCH":5158,"BSTAR":0.0010911223,"MEAN_MOTION_DOT":0.00029866,"MEAN_MOTION_DDOT":0},{"OBJECT_NAME":"STARLINK-33564","OBJECT_ID":"2024-237V","EPOCH":"2025-11-01T11:42:53.081568","MEAN_MOTION":15.27569489,"ECCENTRICITY":0.00011863,"INCLINATION":43.0013,"RA_OF_ASC_NODE":220.5107,"ARG_OF_PERICENTER":288.739,"MEAN_ANOMALY":71.3333,"EPHEMERIS_TYPE":0,"CLASSIFICATION_TYPE":"U","NORAD_CAT_ID":62286,"ELEMENT_SET_NO":999,"REV_AT_EPOCH":5158,"BSTAR":0.00097041039,"MEAN_MOTION_DOT":0.00026529,"MEAN_MOTION_DDOT":0},{"OBJECT_NAME":"STARLINK-33546","OBJECT_ID":"2024-237W","EPOCH":"2025-11-01T11:31:44.263488","MEAN_MOTION":15.27637035,"ECCENTRICITY":0.0003597,"INCLINATION":43.0035,"RA_OF_ASC_NODE":220.451,"ARG_OF_PERICENTER":276.6616,"MEAN_ANOMALY":83.3826,"EPHEMERIS_TYPE":0,"CLASSIFICATION_TYPE":"U","NORAD_CAT_ID":62287,"ELEMENT_SET_NO":999,"REV_AT_EPOCH":5149,"BSTAR":0.0010040746,"MEAN_MOTION_DOT":0.00027522,"MEAN_MOTION_DDOT":0},{"OBJECT_NAME":"STARLINK-33565","OBJECT_ID":"2024-237X","EPOCH":"2025-10-31T18:06:47.504736","MEAN_MOTION":15.27642316,"ECCENTRICITY":0.0003217,"INCLINATION":42.9989,"RA_OF_ASC_NODE":213.2151,"ARG_OF_PERICENTER":304.4226,"MEAN_ANOMALY":55.6322,"EPHEMERIS_TYPE":0,"CLASSIFICATION_TYPE":"U","NORAD_CAT_ID":62288,"ELEMENT_SET_NO":999,"REV_AT_EPOCH":5160,"BSTAR":0.0015662606,"MEAN_MOTION_DOT":0.00043177,"MEAN_MOTION_DDOT":0},{"OBJECT_NAME":"STARLINK-33549","OBJECT_ID":"2024-237Y","EPOCH":"2025-11-01T11:48:26.309088","MEAN_MOTION":15.27571999,"ECCENTRICITY":0.00014052,"INCLINATION":43.0036,"RA_OF_ASC_NODE":220.5406,"ARG_OF_PERICENTER":274.2388,"MEAN_ANOMALY":85.8303,"EPHEMERIS_TYPE":0,"CLASSIFICATION_TYPE":"U","NORAD_CAT_ID":62289,"ELEMENT_SET_NO":999,"REV_AT_EPOCH":5158,"BSTAR":0.0018935381,"MEAN_MOTION_DOT":0.00052201,"MEAN_MOTION_DDOT":0}]
